ONEWEB-0613             
1 56071U 23043AB  23300.83706403 -.00000152  00000+0 -43760-3 0  9992
2 56071  87.8960  90.9936 0001576  77.5628 282.5679 13.15600235 30681
ONEWEB-0630             
1 56072U 23043AC  23300.83266698  .00004964  00000+0  13119-1 0  9996
2 56072  87.8962  90.9934 0001203  76.4438 283.6826 13.15675913 30676
ONEWEB-0632             
1 56073U 23043AD  23300.82824472  .00006810  00000+0  17982-1 0  9990
2 56073  87.8963  91.0106 0002358  85.1789 274.9611 13.15772076 30672
ONEWEB-0633             
1 56074U 23043AE  23300.82191708  .00010277  00000+0  27155-1 0  9995
2 56074  87.8951  91.0044 0001383  81.2911 278.8376 13.15749716 30656
ONEWEB-0634             
1 56075U 23043AF  23300.65446617 -.00013534  00000+0 -36027-1 0  9998
2 56075  87.8955  91.0339 0002181  84.1571 275.9808 13.15566886 30629
ONEWEB-0635             
1 56076U 23043AG  23300.72542643 -.00005000  00000+0 -13347-1 0  9992
2 56076  87.8938  91.0917 0001932  72.1402 287.9939 13.15420710 30663
ONEWEB-0636             
1 56077U 23043AH  23300.86929085 -.00006130  00000+0 -16384-1 0  9996
2 56077  87.8945  91.0267 0002027  80.1385 279.9974 13.15317606 30664
ONEWEB-0637             
1 56078U 23043AJ  23300.86295100 -.00008378  00000+0 -22379-1 0  9998
2 56078  87.8965  90.9907 0002199  91.1013 269.0369 13.15331312 30686
